[
    {
        "Altitude(m)": 709000.1098370389,
        "Argument of Periapsis(deg)": 0.0,
        "Eccentricity": 0.0,
        "Inclination(deg)": 45.0,
        "Latitude(deg)": -22.638789699430973,
        "Longitude(deg)": -60.461737950760615,
        "Mean Anomaly(deg)": -147.27269999999996,
        "RAAN(deg)": 195.00000000000003,
        "Satellite Name": "Constellation 1 871",
        "Satellite Number": 871,
        "Semi-Major Axis(m)": 7083131.272910544,
        "Time(s)": 0
    },
    {
        "Altitude(m)": 709013.6644080407,
        "Argument of Periapsis(deg)": 5.994800624540561e-05,
        "Eccentricity": 0.0,
        "Inclination(deg)": 45.0,
        "Latitude(deg)": -22.677999252443332,
        "Longitude(deg)": -60.41563250635707,
        "Mean Anomaly(deg)": -147.2119988597501,
        "RAAN(deg)": 194.99994341083442,
        "Satellite Name": "Constellation 1 871",
        "Satellite Number": 871,
        "Semi-Major Axis(m)": 7083131.272910544,
        "Time(s)": 1
    },
    {
        "Altitude(m)": 709027.2241515978,
        "Argument of Periapsis(deg)": 0.00011989601249081122,
        "Eccentricity": 0.0,
        "Inclination(deg)": 45.0,
        "Latitude(deg)": -22.717192771790344,
        "Longitude(deg)": -60.369498642128676,
        "Mean Anomaly(deg)": -147.1512977195002,
        "RAAN(deg)": 194.99988682166887,
        "Satellite Name": "Constellation 1 871",
        "Satellite Number": 871,
        "Semi-Major Axis(m)": 7083131.272910544,
        "Time(s)": 2
    },
    {
        "Altitude(m)": 709040.7890224973,
        "Argument of Periapsis(deg)": 0.00017984401873621686,
        "Eccentricity": 0.0,
        "Inclination(deg)": 45.0,
        "Latitude(deg)": -22.75637021832753,
        "Longitude(deg)": -60.323336298669375,
        "Mean Anomaly(deg)": -147.09059657925027,
        "RAAN(deg)": 194.99983023250329,
        "Satellite Name": "Constellation 1 871",
        "Satellite Number": 871,
        "Semi-Major Axis(m)": 7083131.272910544,
        "Time(s)": 3
    },
    {
        "Altitude(m)": 709054.3589754915,
        "Argument of Periapsis(deg)": 0.00023979202498162244,
        "Eccentricity": 0.0,
        "Inclination(deg)": 45.0,
        "Latitude(deg)": -22.795531552854857,
        "Longitude(deg)": -60.27714541655436,
        "Mean Anomaly(deg)": -147.02989543900043,
        "RAAN(deg)": 194.99977364333773,
        "Satellite Name": "Constellation 1 871",
        "Satellite Number": 871,
        "Semi-Major Axis(m)": 7083131.272910544,
        "Time(s)": 4
    },
    {
        "Altitude(m)": 709067.9339653024,
        "Argument of Periapsis(deg)": 0.00029974003122702807,
        "Eccentricity": 0.0,
        "Inclination(deg)": 45.0,
        "Latitude(deg)": -22.8346767361167,
        "Longitude(deg)": -60.23092593634015,
        "Mean Anomaly(deg)": -146.9691942987505,
        "RAAN(deg)": 194.99971705417215,
        "Satellite Name": "Constellation 1 871",
        "Satellite Number": 871,
        "Semi-Major Axis(m)": 7083131.272910544,
        "Time(s)": 5
    },
    {
        "Altitude(m)": 709081.5139466153,
        "Argument of Periapsis(deg)": 0.00035968803747243373,
        "Eccentricity": 0.0,
        "Inclination(deg)": 45.0,
        "Latitude(deg)": -22.873805728801557,
        "Longitude(deg)": -60.18467779856496,
        "Mean Anomaly(deg)": -146.90849315850062,
        "RAAN(deg)": 194.9996604650066,
        "Satellite Name": "Constellation 1 871",
        "Satellite Number": 871,
        "Semi-Major Axis(m)": 7083131.272910544,
        "Time(s)": 6
    },
    {
        "Altitude(m)": 709095.0988740835,
        "Argument of Periapsis(deg)": 0.00041963604371783933,
        "Eccentricity": 0.0,
        "Inclination(deg)": 45.0,
        "Latitude(deg)": -22.91291849154225,
        "Longitude(deg)": -60.138401111846086,
        "Mean Anomaly(deg)": -146.84779201825074,
        "RAAN(deg)": 194.99960387584105,
        "Satellite Name": "Constellation 1 871",
        "Satellite Number": 871,
        "Semi-Major Axis(m)": 7083131.272910544,
        "Time(s)": 7
    },
    {
        "Altitude(m)": 709108.6887023248,
        "Argument of Periapsis(deg)": 0.0004795840499632449,
        "Eccentricity": 0.0,
        "Inclination(deg)": 45.0,
        "Latitude(deg)": -22.952014984915216,
        "Longitude(deg)": -60.092095480491125,
        "Mean Anomaly(deg)": -146.7870908780008,
        "RAAN(deg)": 194.99954728667544,
        "Satellite Name": "Constellation 1 871",
        "Satellite Number": 871,
        "Semi-Major Axis(m)": 7083131.272910544,
        "Time(s)": 8
    },
    {
        "Altitude(m)": 709122.2833859388,
        "Argument of Periapsis(deg)": 0.0005395320562086505,
        "Eccentricity": 0.0,
        "Inclination(deg)": 45.0,
        "Latitude(deg)": -22.99109516944106,
        "Longitude(deg)": -60.045761013081545,
        "Mean Anomaly(deg)": -146.72638973775094,
        "RAAN(deg)": 194.99949069750988,
        "Satellite Name": "Constellation 1 871",
        "Satellite Number": 871,
        "Semi-Major Axis(m)": 7083131.272910544,
        "Time(s)": 9
    },
    {
        "Altitude(m)": 709135.8828794778,
        "Argument of Periapsis(deg)": 0.0005994800624540561,
        "Eccentricity": 0.0,
        "Inclination(deg)": 45.0,
        "Latitude(deg)": -23.030159005584224,
        "Longitude(deg)": -59.99939765008384,
        "Mean Anomaly(deg)": -146.66568859750103,
        "RAAN(deg)": 194.9994341083443,
        "Satellite Name": "Constellation 1 871",
        "Satellite Number": 871,
        "Semi-Major Axis(m)": 7083131.272910544,
        "Time(s)": 10
    },
    {
        "Altitude(m)": 709149.4871374678,
        "Argument of Periapsis(deg)": 0.0006594280686994618,
        "Eccentricity": 0.0,
        "Inclination(deg)": 45.0,
        "Latitude(deg)": -23.06920645375272,
        "Longitude(deg)": -59.95300533194708,
        "Mean Anomaly(deg)": -146.6049874572511,
        "RAAN(deg)": 194.99937751917875,
        "Satellite Name": "Constellation 1 871",
        "Satellite Number": 871,
        "Semi-Major Axis(m)": 7083131.272910544,
        "Time(s)": 11
    },
    {
        "Altitude(m)": 709163.0961144008,
        "Argument of Periapsis(deg)": 0.0007193760749448675,
        "Eccentricity": 0.0,
        "Inclination(deg)": 45.0,
        "Latitude(deg)": -23.108237474298065,
        "Longitude(deg)": -59.906583999103205,
        "Mean Anomaly(deg)": -146.54428631700122,
        "RAAN(deg)": 194.99932093001314,
        "Satellite Name": "Constellation 1 871",
        "Satellite Number": 871,
        "Semi-Major Axis(m)": 7083131.272910544,
        "Time(s)": 12
    },
    {
        "Altitude(m)": 709176.709764746,
        "Argument of Periapsis(deg)": 0.000779324081190273,
        "Eccentricity": 0.0,
        "Inclination(deg)": 45.0,
        "Latitude(deg)": -23.147252027515428,
        "Longitude(deg)": -59.86013359196688,
        "Mean Anomaly(deg)": -146.4835851767513,
        "RAAN(deg)": 194.9992643408476,
        "Satellite Name": "Constellation 1 871",
        "Satellite Number": 871,
        "Semi-Major Axis(m)": 7083131.272910544,
        "Time(s)": 13
    },
    {
        "Altitude(m)": 709190.3280429335,
        "Argument of Periapsis(deg)": 0.0008392720874356787,
        "Eccentricity": 0.0,
        "Inclination(deg)": 45.0,
        "Latitude(deg)": -23.186250073643013,
        "Longitude(deg)": -59.813654050936144,
        "Mean Anomaly(deg)": -146.42288403650144,
        "RAAN(deg)": 194.99920775168204,
        "Satellite Name": "Constellation 1 871",
        "Satellite Number": 871,
        "Semi-Major Axis(m)": 7083131.272910544,
        "Time(s)": 14
    },
    {
        "Altitude(m)": 709203.9509033607,
        "Argument of Periapsis(deg)": 0.0008992200936810842,
        "Eccentricity": 0.0,
        "Inclination(deg)": 45.0,
        "Latitude(deg)": -23.225231572862704,
        "Longitude(deg)": -59.76714548448933,
        "Mean Anomaly(deg)": -146.3621828962515,
        "RAAN(deg)": 194.99915116251645,
        "Satellite Name": "Constellation 1 871",
        "Satellite Number": 871,
        "Semi-Major Axis(m)": 7083131.272910544,
        "Time(s)": 15
    },
    {
        "Altitude(m)": 709217.5783004031,
        "Argument of Periapsis(deg)": 0.0009591680999264898,
        "Eccentricity": 0.0,
        "Inclination(deg)": 45.0,
        "Latitude(deg)": -23.26419648529899,
        "Longitude(deg)": -59.72060749679668,
        "Mean Anomaly(deg)": -146.3014817560016,
        "RAAN(deg)": 194.9990945733509,
        "Satellite Name": "Constellation 1 871",
        "Satellite Number": 871,
        "Semi-Major Axis(m)": 7083131.272910544,
        "Time(s)": 16
    },
    {
        "Altitude(m)": 709231.2101883965,
        "Argument of Periapsis(deg)": 0.0010191161061718953,
        "Eccentricity": 0.0,
        "Inclination(deg)": 45.0,
        "Latitude(deg)": -23.303144771019646,
        "Longitude(deg)": -59.67404019630405,
        "Mean Anomaly(deg)": -146.2407806157517,
        "RAAN(deg)": 194.99903798418535,
        "Satellite Name": "Constellation 1 871",
        "Satellite Number": 871,
        "Semi-Major Axis(m)": 7083131.272910544,
        "Time(s)": 17
    },
    {
        "Altitude(m)": 709244.8465216527,
        "Argument of Periapsis(deg)": 0.001079064112417301,
        "Eccentricity": 0.0,
        "Inclination(deg)": 45.0,
        "Latitude(deg)": -23.342076390035448,
        "Longitude(deg)": -59.62744352334364,
        "Mean Anomaly(deg)": -146.18007947550177,
        "RAAN(deg)": 194.99898139501974,
        "Satellite Name": "Constellation 1 871",
        "Satellite Number": 871,
        "Semi-Major Axis(m)": 7083131.272910544,
        "Time(s)": 18
    }
]